[{"OBJECT_NAME":"IRIDIUM 147","OBJECT_ID":"2018-047E","EPOCH":"2026-03-09T16:30:46.128960","MEAN_MOTION":14.34216716,"ECCENTRICITY":0.00022292,"INCLINATION":86.3976,"RA_OF_ASC_NODE":129.9478,"ARG_OF_PERICENTER":99.0413,"MEAN_ANOMALY":261.1036,"EPHEMERIS_TYPE":0,"CLASSIFICATION_TYPE":"U","NORAD_CAT_ID":43480,"ELEMENT_SET_NO":999,"REV_AT_EPOCH":40822,"BSTAR":8.9014334e-5,"MEAN_MOTION_DOT":2.69e-6,"MEAN_MOTION_DDOT":0},{"OBJECT_NAME":"FENGYUN 1C DEB","OBJECT_ID":"1999-025BZG","EPOCH":"2026-03-09T22:21:08.866368","MEAN_MOTION":14.4101133,"ECCENTRICITY":0.00506416,"INCLINATION":100.7171,"RA_OF_ASC_NODE":327.7824,"ARG_OF_PERICENTER":138.8752,"MEAN_ANOMALY":221.6263,"EPHEMERIS_TYPE":0,"CLASSIFICATION_TYPE":"U","NORAD_CAT_ID":31565,"ELEMENT_SET_NO":999,"REV_AT_EPOCH":65608,"BSTAR":0.0031266518,"MEAN_MOTION_DOT":0.0001016,"MEAN_MOTION_DDOT":0}]
